SEEDS II (CO-66)        
1 32791U 08021J   26068.92109284  .00023758  00000+0  84213-3 0  9995
2 32791  97.7519  62.3611 0001448 359.2618   0.8619 15.29097235972108
STARLINK-31634          
1 59330U 24057L   26068.34399953 -.00000424  00000+0 -58955-5 0  9993
2 59330  43.0040 189.2481 0001630 278.7256  81.3411 15.27574143109785
