[{"OBJECT_NAME":"SEEDS II (CO-66)","OBJECT_ID":"2008-021J","EPOCH":"2026-03-09T22:06:22.421376","MEAN_MOTION":15.29097236,"ECCENTRICITY":0.00014475,"INCLINATION":97.7519,"RA_OF_ASC_NODE":62.3611,"ARG_OF_PERICENTER":359.2618,"MEAN_ANOMALY":0.8619,"EPHEMERIS_TYPE":0,"CLASSIFICATION_TYPE":"U","NORAD_CAT_ID":32791,"ELEMENT_SET_NO":999,"REV_AT_EPOCH":97210,"BSTAR":0.00084213052,"MEAN_MOTION_DOT":0.00023758,"MEAN_MOTION_DDOT":0},{"OBJECT_NAME":"STARLINK-31634","OBJECT_ID":"2024-057L","EPOCH":"2026-03-09T08:15:21.559392","MEAN_MOTION":15.27574143,"ECCENTRICITY":0.00016309,"INCLINATION":43.004,"RA_OF_ASC_NODE":189.2481,"ARG_OF_PERICENTER":278.7256,"MEAN_ANOMALY":81.3411,"EPHEMERIS_TYPE":0,"CLASSIFICATION_TYPE":"U","NORAD_CAT_ID":59330,"ELEMENT_SET_NO":999,"REV_AT_EPOCH":10978,"BSTAR":-5.895482e-6,"MEAN_MOTION_DOT":-4.24e-6,"MEAN_MOTION_DDOT":0}]
